{"fetched_at":"2026-07-11T06:35:19.914Z","source":"https://celestrak.org/NORAD/elements/gp.php?NAME=CAPELLA&FORMAT=JSON","constellation":"capella","records":[{"OBJECT_NAME":"CAPELLA-11 (ACADIA-1)","OBJECT_ID":"2023-126A","EPOCH":"2026-07-10T00:07:06.279456","CLASSIFICATION_TYPE":"U","MEAN_MOTION":14.84739223,"ECCENTRICITY":0.00010249,"INCLINATION":53.0046,"RA_OF_ASC_NODE":85.857,"ARG_OF_PERICENTER":95.7203,"MEAN_ANOMALY":264.3892,"EPHEMERIS_TYPE":0,"NORAD_CAT_ID":57693,"ELEMENT_SET_NO":999,"REV_AT_EPOCH":15551,"BSTAR":0.00035453558,"MEAN_MOTION_DOT":0.00002803,"MEAN_MOTION_DDOT":0},{"OBJECT_NAME":"CAPELLA-14 (ACADIA-4)","OBJECT_ID":"2024-066C","EPOCH":"2026-07-10T09:37:37.930080","CLASSIFICATION_TYPE":"U","MEAN_MOTION":15.09192985,"ECCENTRICITY":0.00002568,"INCLINATION":45.6019,"RA_OF_ASC_NODE":133.0062,"ARG_OF_PERICENTER":292.39,"MEAN_ANOMALY":67.6958,"EPHEMERIS_TYPE":0,"NORAD_CAT_ID":59444,"ELEMENT_SET_NO":999,"REV_AT_EPOCH":11599,"BSTAR":0.00051362493,"MEAN_MOTION_DOT":0.00008048,"MEAN_MOTION_DDOT":0},{"OBJECT_NAME":"CAPELLA-13 (ACADIA-3)","OBJECT_ID":"2024-142A","EPOCH":"2026-07-09T20:58:29.029440","CLASSIFICATION_TYPE":"U","MEAN_MOTION":14.87663021,"ECCENTRICITY":0.00012465,"INCLINATION":53.0054,"RA_OF_ASC_NODE":318.5396,"ARG_OF_PERICENTER":89.7217,"MEAN_ANOMALY":270.3906,"EPHEMERIS_TYPE":0,"NORAD_CAT_ID":60419,"ELEMENT_SET_NO":999,"REV_AT_EPOCH":10378,"BSTAR":0.00038643312,"MEAN_MOTION_DOT":0.00003316,"MEAN_MOTION_DDOT":0},{"OBJECT_NAME":"CAPELLA-15 (ACADIA-5)","OBJECT_ID":"2024-149CE","EPOCH":"2026-07-08T18:40:01.354944","CLASSIFICATION_TYPE":"U","MEAN_MOTION":14.92382217,"ECCENTRICITY":0.00033866,"INCLINATION":97.6776,"RA_OF_ASC_NODE":262.1397,"ARG_OF_PERICENTER":8.7995,"MEAN_ANOMALY":351.3283,"EPHEMERIS_TYPE":0,"NORAD_CAT_ID":60544,"ELEMENT_SET_NO":999,"REV_AT_EPOCH":10307,"BSTAR":0.00020207209,"MEAN_MOTION_DOT":0.00002013,"MEAN_MOTION_DDOT":0},{"OBJECT_NAME":"CAPELLA-17 (ACADIA-7)","OBJECT_ID":"2025-135BH","EPOCH":"2026-07-10T13:13:10.798752","CLASSIFICATION_TYPE":"U","MEAN_MOTION":14.91591361,"ECCENTRICITY":0.0003868,"INCLINATION":97.7702,"RA_OF_ASC_NODE":304.8274,"ARG_OF_PERICENTER":270.4827,"MEAN_ANOMALY":89.5949,"EPHEMERIS_TYPE":0,"NORAD_CAT_ID":64583,"ELEMENT_SET_NO":999,"REV_AT_EPOCH":5733,"BSTAR":0.0003602,"MEAN_MOTION_DOT":0.00003559,"MEAN_MOTION_DDOT":0},{"OBJECT_NAME":"CAPELLA-16 (ACADIA-6)","OBJECT_ID":"2025-188D","EPOCH":"2026-07-08T22:12:46.641312","CLASSIFICATION_TYPE":"U","MEAN_MOTION":14.94003832,"ECCENTRICITY":0.00052003,"INCLINATION":97.7375,"RA_OF_ASC_NODE":264.7514,"ARG_OF_PERICENTER":152.8898,"MEAN_ANOMALY":207.2595,"EPHEMERIS_TYPE":0,"NORAD_CAT_ID":65318,"ELEMENT_SET_NO":999,"REV_AT_EPOCH":4716,"BSTAR":0.0003158809,"MEAN_MOTION_DOT":0.00003312,"MEAN_MOTION_DDOT":0},{"OBJECT_NAME":"CAPELLA-19 (ACADIA-9)","OBJECT_ID":"2026-004X","EPOCH":"2026-07-09T11:27:36.547776","CLASSIFICATION_TYPE":"U","MEAN_MOTION":14.8665191,"ECCENTRICITY":0.00015133,"INCLINATION":97.8006,"RA_OF_ASC_NODE":188.4486,"ARG_OF_PERICENTER":95.805,"MEAN_ANOMALY":264.3338,"EPHEMERIS_TYPE":0,"NORAD_CAT_ID":67384,"ELEMENT_SET_NO":999,"REV_AT_EPOCH":2658,"BSTAR":0.00042048422,"MEAN_MOTION_DOT":0.00003681,"MEAN_MOTION_DDOT":0},{"OBJECT_NAME":"CAPELLA-18 (ACADIA-8)","OBJECT_ID":"2026-004Y","EPOCH":"2026-07-09T11:42:03.528576","CLASSIFICATION_TYPE":"U","MEAN_MOTION":14.86647255,"ECCENTRICITY":0.00007957,"INCLINATION":97.802,"RA_OF_ASC_NODE":188.6087,"ARG_OF_PERICENTER":9.4479,"MEAN_ANOMALY":350.6751,"EPHEMERIS_TYPE":0,"NORAD_CAT_ID":67385,"ELEMENT_SET_NO":999,"REV_AT_EPOCH":2659,"BSTAR":0.000099145235,"MEAN_MOTION_DOT":0.00000827,"MEAN_MOTION_DDOT":0},{"OBJECT_NAME":"CAPELLA-20 (ACADIA-10)","OBJECT_ID":"2026-067BX","EPOCH":"2026-07-10T08:00:03.000384","CLASSIFICATION_TYPE":"U","MEAN_MOTION":14.9163605,"ECCENTRICITY":0.00008746,"INCLINATION":97.758,"RA_OF_ASC_NODE":149.2589,"ARG_OF_PERICENTER":142.3971,"MEAN_ANOMALY":27.887,"EPHEMERIS_TYPE":0,"NORAD_CAT_ID":68485,"ELEMENT_SET_NO":999,"REV_AT_EPOCH":570,"BSTAR":0.0047728813,"MEAN_MOTION_DOT":0.00048196,"MEAN_MOTION_DDOT":0}]}
